{
  "type": "FeatureCollection",
  "features": [
    {
      "type": "Feature",
      "properties": {
        "norad_id": 66583,
        "name": "STARLINK-35941",
        "group": "last-30-days",
        "lat": 28.679263710828383,
        "lon": 118.70227126975263,
        "alt_km": 411.2593553470542,
        "timestamp": "2025-12-19T06:59:42.649497+00:00",
        "meta_object_name": "STARLINK-35941",
        "meta_object_id": "2025-268AC",
        "meta_epoch": "2025-12-18T13:47:55.292064",
        "meta_mean_motion": 15.5059531,
        "meta_eccentricity": 0.00036374,
        "meta_inclination": 42.9999,
        "meta_ra_of_asc_node": 86.949,
        "meta_arg_of_pericenter": 277.8009,
        "meta_mean_anomaly": 82.2438,
        "meta_ephemeris_type": 0,
        "meta_classification_type": "U",
        "meta_norad_cat_id": 66583,
        "meta_element_set_no": 999,
        "meta_rev_at_epoch": 553,
        "meta_bstar": 0.0019257968,
        "meta_mean_motion_dot": 0.00114384,
        "meta_mean_motion_ddot": 0,
        "tle_line1": "1 66583U 25268AC  25352.57494551  .00114384  00000+0  19258-2 0  9995",
        "tle_line2": "2 66583  42.9999  86.9490 0003637 277.8009  82.2438 15.50595310  5534"
      },
      "geometry": {
        "type": "Point",
        "coordinates": [
          118.70227126975263,
          28.679263710828383
        ]
      }
    },
    {
      "type": "Feature",
      "properties": {
        "norad_id": 66584,
        "name": "STARLINK-35939",
        "group": "last-30-days",
        "lat": 29.735434926614644,
        "lon": 120.55583148147699,
        "alt_km": 410.5573339832745,
        "timestamp": "2025-12-19T06:59:42.649510+00:00",
        "meta_object_name": "STARLINK-35939",
        "meta_object_id": "2025-268AD",
        "meta_epoch": "2025-12-18T13:47:25.569600",
        "meta_mean_motion": 15.50609081,
        "meta_eccentricity": 0.00021101,
        "meta_inclination": 42.9997,
        "meta_ra_of_asc_node": 86.9444,
        "meta_arg_of_pericenter": 279.7649,
        "meta_mean_anomaly": 80.2973,
        "meta_ephemeris_type": 0,
        "meta_classification_type": "U",
        "meta_norad_cat_id": 66584,
        "meta_element_set_no": 999,
        "meta_rev_at_epoch": 553,
        "meta_bstar": 0.0016835386,
        "meta_mean_motion_dot": 0.00099801,
        "meta_mean_motion_ddot": 0,
        "tle_line1": "1 66584U 25268AD  25352.57460150  .00099801  00000+0  16835-2 0  9998",
        "tle_line2": "2 66584  42.9997  86.9444 0002110 279.7649  80.2973 15.50609081  5531"
      },
      "geometry": {
        "type": "Point",
        "coordinates": [
          120.55583148147699,
          29.735434926614644
        ]
      }
    },
    {
      "type": "Feature",
      "properties": {
        "norad_id": 66585,
        "name": "STARLINK-35963",
        "group": "last-30-days",
        "lat": 30.72346516765823,
        "lon": 122.37217436930163,
        "alt_km": 410.58377672522056,
        "timestamp": "2025-12-19T06:59:42.649521+00:00",
        "meta_object_name": "STARLINK-35963",
        "meta_object_id": "2025-268AE",
        "meta_epoch": "2025-12-18T15:19:41.296224",
        "meta_mean_motion": 15.5060925,
        "meta_eccentricity": 0.00020184,
        "meta_inclination": 43.0005,
        "meta_ra_of_asc_node": 86.5665,
        "meta_arg_of_pericenter": 276.3175,
        "meta_mean_anomaly": 83.7456,
        "meta_ephemeris_type": 0,
        "meta_classification_type": "U",
        "meta_norad_cat_id": 66585,
        "meta_element_set_no": 999,
        "meta_rev_at_epoch": 554,
        "meta_bstar": 0.0013710152,
        "meta_mean_motion_dot": 0.00081015,
        "meta_mean_motion_ddot": 0,
        "tle_line1": "1 66585U 25268AE  25352.63867241  .00081015  00000+0  13710-2 0  9995",
        "tle_line2": "2 66585  43.0005  86.5665 0002018 276.3175  83.7456 15.50609250  5542"
      },
      "geometry": {
        "type": "Point",
        "coordinates": [
          122.37217436930163,
          30.72346516765823
        ]
      }
    },
    {
      "type": "Feature",
      "properties": {
        "norad_id": 66586,
        "name": "TJS-21",
        "group": "last-30-days",
        "lat": 50.037639012885386,
        "lon": -161.37754758252754,
        "alt_km": 28033.681531568258,
        "timestamp": "2025-12-19T06:59:42.649534+00:00",
        "meta_object_name": "TJS-21",
        "meta_object_id": "2025-269A",
        "meta_epoch": "2025-12-17T17:02:22.041312",
        "meta_mean_motion": 2.0057908,
        "meta_eccentricity": 0.68067044,
        "meta_inclination": 63.2727,
        "meta_ra_of_asc_node": 161.8266,
        "meta_arg_of_pericenter": 269.7474,
        "meta_mean_anomaly": 18.6658,
        "meta_ephemeris_type": 0,
        "meta_classification_type": "U",
        "meta_norad_cat_id": 66586,
        "meta_element_set_no": 999,
        "meta_rev_at_epoch": 53,
        "meta_bstar": -0.056704564,
        "meta_mean_motion_dot": 1.088e-05,
        "meta_mean_motion_ddot": 0,
        "tle_line1": "1 66586U 25269A   25351.70997733  .00001088  00000+0 -56705-1 0  9997",
        "tle_line2": "2 66586  63.2727 161.8266 6806704 269.7474  18.6658  2.00579080   533"
      },
      "geometry": {
        "type": "Point",
        "coordinates": [
          -161.37754758252754,
          50.037639012885386
        ]
      }
    },
    {
      "type": "Feature",
      "properties": {
        "norad_id": 66587,
        "name": "CZ-3B R/B",
        "group": "last-30-days",
        "lat": 29.505728289340155,
        "lon": -164.96979319062825,
        "alt_km": 37249.057826842865,
        "timestamp": "2025-12-19T06:59:42.649549+00:00",
        "meta_object_name": "CZ-3B R/B",
        "meta_object_id": "2025-269B",
        "meta_epoch": "2025-12-18T04:21:45.908640",
        "meta_mean_motion": 2.0405465,
        "meta_eccentricity": 0.75166459,
        "meta_inclination": 51.3412,
        "meta_ra_of_asc_node": 168.3764,
        "meta_arg_of_pericenter": 229.6756,
        "meta_mean_anomaly": 36.1575,
        "meta_ephemeris_type": 0,
        "meta_classification_type": "U",
        "meta_norad_cat_id": 66587,
        "meta_element_set_no": 999,
        "meta_rev_at_epoch": 56,
        "meta_bstar": 0.00058948144,
        "meta_mean_motion_dot": 0.0008861,
        "meta_mean_motion_ddot": -1.447425e-06,
        "tle_line1": "1 66587U 25269B   25352.18178135  .00088610 -14474-5  58948-3 0  9993",
        "tle_line2": "2 66587  51.3412 168.3764 7516645 229.6756  36.1575  2.04054650   560"
      },
      "geometry": {
        "type": "Point",
        "coordinates": [
          -164.96979319062825,
          29.505728289340155
        ]
      }
    },
    {
      "type": "Feature",
      "properties": {
        "norad_id": 66588,
        "name": "STARLINK-36076",
        "group": "last-30-days",
        "lat": 22.79548585146608,
        "lon": -178.16511364331092,
        "alt_km": 441.05088498152145,
        "timestamp": "2025-12-19T06:59:42.649561+00:00",
        "meta_object_name": "STARLINK-36076",
        "meta_object_id": "2025-270A",
        "meta_epoch": "2025-12-18T21:30:37.664064",
        "meta_mean_motion": 15.40723849,
        "meta_eccentricity": 0.00017346,
        "meta_inclination": 42.9987,
        "meta_ra_of_asc_node": 157.3036,
        "meta_arg_of_pericenter": 262.7406,
        "meta_mean_anomaly": 97.3253,
        "meta_ephemeris_type": 0,
        "meta_classification_type": "U",
        "meta_norad_cat_id": 66588,
        "meta_element_set_no": 999,
        "meta_rev_at_epoch": 529,
        "meta_bstar": 0.00064619522,
        "meta_mean_motion_dot": 0.00026806,
        "meta_mean_motion_ddot": 0,
        "tle_line1": "1 66588U 25270A   25352.89626926  .00026806  00000+0  64620-3 0  9996",
        "tle_line2": "2 66588  42.9987 157.3036 0001734 262.7406  97.3253 15.40723849  5299"
      },
      "geometry": {
        "type": "Point",
        "coordinates": [
          -178.16511364331092,
          22.79548585146608
        ]
      }
    },
    {
      "type": "Feature",
      "properties": {
        "norad_id": 66589,
        "name": "STARLINK-35447",
        "group": "last-30-days",
        "lat": 29.274282675625273,
        "lon": -62.19826495126025,
        "alt_km": 440.3221487391447,
        "timestamp": "2025-12-19T06:59:42.649572+00:00",
        "meta_object_name": "STARLINK-35447",
        "meta_object_id": "2025-270B",
        "meta_epoch": "2025-12-19T00:00:02.000160",
        "meta_mean_motion": 15.40698327,
        "meta_eccentricity": 0.00016243,
        "meta_inclination": 42.9993,
        "meta_ra_of_asc_node": 156.4658,
        "meta_arg_of_pericenter": 293.4382,
        "meta_mean_anomaly": 22.2483,
        "meta_ephemeris_type": 0,
        "meta_classification_type": "U",
        "meta_norad_cat_id": 66589,
        "meta_element_set_no": 999,
        "meta_rev_at_epoch": 551,
        "meta_bstar": 0.0016228969,
        "meta_mean_motion_dot": 0.00068093,
        "meta_mean_motion_ddot": 0,
        "tle_line1": "1 66589U 25270B   25353.00002315  .00068093  00000+0  16229-2 0  9996",
        "tle_line2": "2 66589  42.9993 156.4658 0001624 293.4382  22.2483 15.40698327  5518"
      },
      "geometry": {
        "type": "Point",
        "coordinates": [
          -62.19826495126025,
          29.274282675625273
        ]
      }
    }
  ]
}